{
  "type": "FeatureCollection",
  "features": [
    {
      "type": "Feature",
      "properties": {
        "norad_id": 66477,
        "name": "STARLINK-35354",
        "group": "last-30-days",
        "lat": -35.348382703489435,
        "lon": -77.97214425659278,
        "alt_km": 446.2922843560864,
        "timestamp": "2025-12-15T22:44:27.658923+00:00",
        "meta_object_name": "STARLINK-35354",
        "meta_object_id": "2025-262X",
        "meta_epoch": "2025-12-15T08:00:01.999872",
        "meta_mean_motion": 15.406876,
        "meta_eccentricity": 0.00015486,
        "meta_inclination": 43.0004,
        "meta_ra_of_asc_node": 56.0006,
        "meta_arg_of_pericenter": 276.5311,
        "meta_mean_anomaly": 150.8685,
        "meta_ephemeris_type": 0,
        "meta_classification_type": "U",
        "meta_norad_cat_id": 66477,
        "meta_element_set_no": 999,
        "meta_rev_at_epoch": 605,
        "meta_bstar": 0.00021051123,
        "meta_mean_motion_dot": 8.496e-05,
        "meta_mean_motion_ddot": 0,
        "tle_line1": "1 66477U 25262X   25349.33335648  .00008496  00000+0  21051-3 0  9993",
        "tle_line2": "2 66477  43.0004  56.0006 0001548 276.5311 150.8685 15.40687600  6054"
      },
      "geometry": {
        "type": "Point",
        "coordinates": [
          -77.97214425659278,
          -35.348382703489435
        ]
      }
    },
    {
      "type": "Feature",
      "properties": {
        "norad_id": 66478,
        "name": "STARLINK-35283",
        "group": "last-30-days",
        "lat": -39.991713255161166,
        "lon": -63.38942771879942,
        "alt_km": 446.70693709468924,
        "timestamp": "2025-12-15T22:44:27.658934+00:00",
        "meta_object_name": "STARLINK-35283",
        "meta_object_id": "2025-262Y",
        "meta_epoch": "2025-12-15T08:00:01.999872",
        "meta_mean_motion": 15.40691083,
        "meta_eccentricity": 0.00010574,
        "meta_inclination": 43.0008,
        "meta_ra_of_asc_node": 55.9698,
        "meta_arg_of_pericenter": 277.0338,
        "meta_mean_anomaly": 162.8307,
        "meta_ephemeris_type": 0,
        "meta_classification_type": "U",
        "meta_norad_cat_id": 66478,
        "meta_element_set_no": 999,
        "meta_rev_at_epoch": 605,
        "meta_bstar": -6.2758886e-05,
        "meta_mean_motion_dot": -2.923e-05,
        "meta_mean_motion_ddot": 0,
        "tle_line1": "1 66478U 25262Y   25349.33335648 -.00002923  00000+0 -62759-4 0  9996",
        "tle_line2": "2 66478  43.0008  55.9698 0001057 277.0338 162.8307 15.40691083  6058"
      },
      "geometry": {
        "type": "Point",
        "coordinates": [
          -63.38942771879942,
          -39.991713255161166
        ]
      }
    },
    {
      "type": "Feature",
      "properties": {
        "norad_id": 66479,
        "name": "STARLINK-35581",
        "group": "last-30-days",
        "lat": -29.185003190579952,
        "lon": -90.68587755246236,
        "alt_km": 446.65758743841525,
        "timestamp": "2025-12-15T22:44:27.658945+00:00",
        "meta_object_name": "STARLINK-35581",
        "meta_object_id": "2025-262Z",
        "meta_epoch": "2025-12-15T08:00:01.999872",
        "meta_mean_motion": 15.40710906,
        "meta_eccentricity": 0.00011368,
        "meta_inclination": 43.0012,
        "meta_ra_of_asc_node": 56.0303,
        "meta_arg_of_pericenter": 309.8146,
        "meta_mean_anomaly": 105.1395,
        "meta_ephemeris_type": 0,
        "meta_classification_type": "U",
        "meta_norad_cat_id": 66479,
        "meta_element_set_no": 999,
        "meta_rev_at_epoch": 605,
        "meta_bstar": -0.00010686427,
        "meta_mean_motion_dot": -4.766e-05,
        "meta_mean_motion_ddot": 0,
        "tle_line1": "1 66479U 25262Z   25349.33335648 -.00004766  00000+0 -10686-3 0  9995",
        "tle_line2": "2 66479  43.0012  56.0303 0001136 309.8146 105.1395 15.40710906  6051"
      },
      "geometry": {
        "type": "Point",
        "coordinates": [
          -90.68587755246236,
          -29.185003190579952
        ]
      }
    },
    {
      "type": "Feature",
      "properties": {
        "norad_id": 66480,
        "name": "STARLINK-35670",
        "group": "last-30-days",
        "lat": -42.5745370629674,
        "lon": -47.2382831800015,
        "alt_km": 446.726475653576,
        "timestamp": "2025-12-15T22:44:27.658956+00:00",
        "meta_object_name": "STARLINK-35670",
        "meta_object_id": "2025-262AA",
        "meta_epoch": "2025-12-15T08:00:01.999872",
        "meta_mean_motion": 15.40669041,
        "meta_eccentricity": 0.00012635,
        "meta_inclination": 43.0008,
        "meta_ra_of_asc_node": 55.9395,
        "meta_arg_of_pericenter": 295.404,
        "meta_mean_anomaly": 156.9094,
        "meta_ephemeris_type": 0,
        "meta_classification_type": "U",
        "meta_norad_cat_id": 66480,
        "meta_element_set_no": 999,
        "meta_rev_at_epoch": 605,
        "meta_bstar": 0.00050012822,
        "meta_mean_motion_dot": 0.00020623,
        "meta_mean_motion_ddot": 0,
        "tle_line1": "1 66480U 25262AA  25349.33335648  .00020623  00000+0  50013-3 0  9993",
        "tle_line2": "2 66480  43.0008  55.9395 0001263 295.4040 156.9094 15.40669041  6054"
      },
      "geometry": {
        "type": "Point",
        "coordinates": [
          -47.2382831800015,
          -42.5745370629674
        ]
      }
    },
    {
      "type": "Feature",
      "properties": {
        "norad_id": 66481,
        "name": "STARLINK-35698",
        "group": "last-30-days",
        "lat": -42.7882535680981,
        "lon": -30.994368786625508,
        "alt_km": 449.4494264302957,
        "timestamp": "2025-12-15T22:44:27.658967+00:00",
        "meta_object_name": "STARLINK-35698",
        "meta_object_id": "2025-262AB",
        "meta_epoch": "2025-12-15T08:00:01.999872",
        "meta_mean_motion": 15.42223981,
        "meta_eccentricity": 0.00016482,
        "meta_inclination": 43.0005,
        "meta_ra_of_asc_node": 55.9113,
        "meta_arg_of_pericenter": 264.9932,
        "meta_mean_anomaly": 198.8792,
        "meta_ephemeris_type": 0,
        "meta_classification_type": "U",
        "meta_norad_cat_id": 66481,
        "meta_element_set_no": 999,
        "meta_rev_at_epoch": 605,
        "meta_bstar": -0.052204516,
        "meta_mean_motion_dot": -0.02039532,
        "meta_mean_motion_ddot": 0,
        "tle_line1": "1 66481U 25262AB  25349.33335648 -.02039532  00000+0 -52205-1 0  9990",
        "tle_line2": "2 66481  43.0005  55.9113 0001648 264.9932 198.8792 15.42223981  6059"
      },
      "geometry": {
        "type": "Point",
        "coordinates": [
          -30.994368786625508,
          -42.7882535680981
        ]
      }
    },
    {
      "type": "Feature",
      "properties": {
        "norad_id": 66482,
        "name": "STARLINK-35648",
        "group": "last-30-days",
        "lat": -39.16326018934769,
        "lon": -8.611496352151287,
        "alt_km": 437.2407110060767,
        "timestamp": "2025-12-15T22:44:27.658977+00:00",
        "meta_object_name": "STARLINK-35648",
        "meta_object_id": "2025-262AC",
        "meta_epoch": "2025-12-15T05:57:25.466688",
        "meta_mean_motion": 15.44387425,
        "meta_eccentricity": 0.00011606,
        "meta_inclination": 43.0002,
        "meta_ra_of_asc_node": 56.3758,
        "meta_arg_of_pericenter": 263.8619,
        "meta_mean_anomaly": 96.2107,
        "meta_ephemeris_type": 0,
        "meta_classification_type": "U",
        "meta_norad_cat_id": 66482,
        "meta_element_set_no": 999,
        "meta_rev_at_epoch": 579,
        "meta_bstar": -0.0083046576,
        "meta_mean_motion_dot": -0.0037451,
        "meta_mean_motion_ddot": 0,
        "tle_line1": "1 66482U 25262AC  25349.24821142 -.00374510  00000+0 -83047-2 0  9995",
        "tle_line2": "2 66482  43.0002  56.3758 0001160 263.8619  96.2107 15.44387425  5793"
      },
      "geometry": {
        "type": "Point",
        "coordinates": [
          -8.611496352151287,
          -39.16326018934769
        ]
      }
    },
    {
      "type": "Feature",
      "properties": {
        "norad_id": 66483,
        "name": "STARLINK-35654",
        "group": "last-30-days",
        "lat": -34.55634809414195,
        "lon": 4.644553372464698,
        "alt_km": 432.66430879549625,
        "timestamp": "2025-12-15T22:44:27.658988+00:00",
        "meta_object_name": "STARLINK-35654",
        "meta_object_id": "2025-262AD",
        "meta_epoch": "2025-12-15T05:55:16.507776",
        "meta_mean_motion": 15.45705836,
        "meta_eccentricity": 0.00019194,
        "meta_inclination": 43.0014,
        "meta_ra_of_asc_node": 56.3645,
        "meta_arg_of_pericenter": 310.3294,
        "meta_mean_anomaly": 49.7397,
        "meta_ephemeris_type": 0,
        "meta_classification_type": "U",
        "meta_norad_cat_id": 66483,
        "meta_element_set_no": 999,
        "meta_rev_at_epoch": 595,
        "meta_bstar": -0.008414589,
        "meta_mean_motion_dot": -0.00395992,
        "meta_mean_motion_ddot": 0,
        "tle_line1": "1 66483U 25262AD  25349.24671884 -.00395992  00000+0 -84146-2 0  9990",
        "tle_line2": "2 66483  43.0014  56.3645 0001919 310.3294  49.7397 15.45705836  5954"
      },
      "geometry": {
        "type": "Point",
        "coordinates": [
          4.644553372464698,
          -34.55634809414195
        ]
      }
    }
  ]
}